{
  "norad_id": 63114,
  "name": "STARLINK-11600 [DTC]",
  "history": [
    {
      "epoch": "2026-03-28T19:19:47.887968Z",
      "apogee_km": 357.2987633452749,
      "perigee_km": 355.25177139248535,
      "latitude_deg": -1.5547000920767605e-06,
      "longitude_deg": 5.29017563931908,
      "height_km": 355.2851010666375,
      "semi_major_axis_km": 6734.41226736888,
      "eccentricity": 0.00015198,
      "inclination_deg": 43.001,
      "raan_deg": 121.4603,
      "arg_perigee_deg": 42.0149,
      "mean_anomaly_deg": 318.0835,
      "mean_motion_rev_day": 15.70916903
    },
    {
      "epoch": "2026-03-29T02:57:34.023744Z",
      "apogee_km": 357.04264652441,
      "perigee_km": 355.1449402868275,
      "latitude_deg": -3.4932109425081105e-06,
      "longitude_deg": -111.38189053954622,
      "height_km": 355.7671570214904,
      "semi_major_axis_km": 6734.230793405618,
      "eccentricity": 0.0001409,
      "inclination_deg": 43.0004,
      "raan_deg": 119.5438,
      "arg_perigee_deg": 275.9969,
      "mean_anomaly_deg": 84.0738,
      "mean_motion_rev_day": 15.70980403
    },
    {
      "epoch": "2026-03-30T04:54:06.105312Z",
      "apogee_km": 357.9220738504664,
      "perigee_km": 355.0181112721548,
      "latitude_deg": -5.060794204746536e-05,
      "longitude_deg": -148.09722343688662,
      "height_km": 355.9454529754643,
      "semi_major_axis_km": 6734.60709256131,
      "eccentricity": 0.0002156,
      "inclination_deg": 43.0007,
      "raan_deg": 113.0276,
      "arg_perigee_deg": 281.8341,
      "mean_anomaly_deg": 78.2284,
      "mean_motion_rev_day": 15.70848736
    },
    {
      "epoch": "2026-03-30T06:25:39.767232Z",
      "apogee_km": 357.39505869038385,
      "perigee_km": 355.4743588390438,
      "latitude_deg": 2.7753868071862995e-05,
      "longitude_deg": -171.4327691033112,
      "height_km": 356.33181053077504,
      "semi_major_axis_km": 6734.571708764714,
      "eccentricity": 0.0001426,
      "inclination_deg": 42.9999,
      "raan_deg": 112.6449,
      "arg_perigee_deg": 262.5405,
      "mean_anomaly_deg": 97.5301,
      "mean_motion_rev_day": 15.70861116
    }
  ]
}